OPTICUBE 04             
1 41851U 16067D   25050.78195723  .00006896  00000+0  47500-3 0  9990
2 41851  98.0901 233.0246 0016325 307.5584  52.4158 15.06103767452469
AEROCUBE 8D             
1 41852U 16067E   25050.46490599  .00017616  00000+0  94774-3 0  9992
2 41852  98.1137 240.6184 0004567   1.7448 358.3797 15.14920735452743
AEROCUBE 8C             
1 41853U 16067F   25050.94042628  .00014633  00000+0  78665-3 0  9999
2 41853  98.0963 239.1312 0006084 283.1527  76.9024 15.14987127452807
PROMETHEUS 2-1          
1 41854U 16067G   25050.79060061  .00051528  00000+0  14534-2 0  9992
2 41854  98.0911 252.2168 0008409 285.1003  74.9308 15.36201199453480
PROMETHEUS 2-3          
1 41855U 16067H   25051.12333359  .00049168  00000+0  13890-2 0  9995
2 41855  98.0854 251.8355 0007379 293.7853  66.2615 15.36172787453534
CORVUS BC2              
1 42846U 17042X   25050.94601675  .00006930  00000+0  53859-3 0  9998
2 42846  97.3703 228.9331 0012049 314.7774  45.2470 15.01540489414572
CORVUS BC1              
1 42847U 17042Y   25050.94786979  .00007487  00000+0  57850-3 0  9993
2 42847  97.3730 229.3826 0010772 290.4603  69.5465 15.01752749414598
MIRATA                  
1 43015U 17073C   25050.93760478  .00053493  00000+0  14018-2 0  9996
2 43015  97.5583 302.1762 0115287 119.2805 242.0018 15.31920123393923
MAKERSAT 0              
1 43016U 17073D   25050.91879523  .00021636  00000+0  96308-3 0  9994
2 43016  97.5380 290.4098 0160611 158.2618 202.5531 15.10559119393152
SIRION PATHFINDER-2     
1 43759U 18099B   25051.10878830  .00009831  00000+0  64194-3 0  9990
2 43759  97.4941 106.7006 0010593 156.0951 204.0771 15.07991021339808
CORVUS BC4              
1 43767U 18099K   25050.70516474  .00008420  00000+0  57047-3 0  9999
2 43767  97.4756 102.6179 0008714 213.7251 146.3423 15.06683663339602
MOVE-II                 
1 43780U 18099Y   25050.91216925  .00083171  00000+0  18844-2 0  9992
2 43780  97.4817 121.2657 0004349 187.2808 172.8377 15.42786786340734
SPACEBEE-7              
1 43816U 18099BL  25051.14623121  .00039454  00000+0  14669-2 0  9994
2 43816  97.5106 119.9365 0007744 143.0557 217.1216 15.27386627340041
SHIELDS 1               
1 43850U 18104B   25050.72383657  .00036751  00000+0  59959-3 0  9998
2 43850  85.0167 113.4232 0007902 194.1681 165.9357 15.52394578344368
SONATE                  
1 44400U 19038Q   25050.59614053  .00084814  00000+0  10564-2 0  9990
2 44400  97.7102  65.8639 0006652 300.2617  59.7979 15.59619874312271
DUCHIFAT-3              
1 44854U 19089C   25051.12131952  .00053038  00000+0  15364-2 0  9998
2 44854  36.9491 325.2501 0008492 342.5980  17.4481 15.34532831286052
M2 PATHFINDER           
1 45727U 20037E   25050.92375387  .00007276  00000+0  57698-3 0  9992
2 45727  97.7970 232.8992 0012435 355.5779   4.5333 15.00777676253056
NETSAT-4                
1 46504U 20068U   25051.13655112  .00023422  00000+0  92385-3 0  9994
2 46504  97.8361  23.2227 0006649 206.2970 153.7930 15.25547726241834
NETSAT-3                
1 46505U 20068V   25050.90539800  .00020044  00000+0  81613-3 0  9993
2 46505  97.8350  22.1545 0005802 220.5221 139.5584 15.24520225241776
NETSAT-1                
1 46506U 20068W   25051.17564525  .00016496  00000+0  74966-3 0  9995
2 46506  97.8377  20.9772 0004916 237.4095 122.6665 15.20830824241717
NETSAT-2                
1 46507U 20068X   25050.90665367  .00021861  00000+0  86939-3 0  9997
2 46507  97.8354  22.5312 0003757 238.3085 121.7786 15.25301644241747
WILDTRACKCUBE-SIMBA     
1 47941U 21022K   25051.19147664  .00041385  00000+0  11465-2 0  9992
2 47941  97.4346 313.8493 0011340   0.3681 359.7569 15.36785296216340
GRBALPHA                
1 47959U 21022AD  25051.12195161  .00102180  00000+0  15751-2 0  9992
2 47959  97.4308 318.9405 0006933 359.0729   1.0510 15.53787870215492
LEDSAT                  
1 49069U 21073D   25051.21524900  .00061475  00000+0  12914-2 0  9998
2 49069  97.4024 129.4295 0012931 119.2977 240.9566 15.45048202194467
ROBUSTA-1F (MTCUBE 2)   
1 53109U 22080E   25050.08913498 -.00000003  00000+0  00000+0 0  9996
2 53109  70.1220 106.2656 0008358  32.9024 327.2155  6.42584186 61020
SITRO-AIS 5 (KATYS)     
1 57176U 23091L   25051.22150396  .00017517  00000+0  89925-3 0  9998
2 57176  97.5762 108.1417 0014777 354.4983   5.6084 15.16484164 90987
SITRO-AIS 6 (CHIRKIN)   
1 57192U 23091AC  25051.13746692  .00016287  00000+0  83792-3 0  9995
2 57192  97.5759 108.0834 0014661 354.8074   5.3004 15.16424506 90972
SITRO-AIS 8 (ANOKHIN)   
1 57193U 23091AD  25051.13456660  .00018026  00000+0  89972-3 0  9998
2 57193  97.5755 108.3804 0014193 354.8147   5.2937 15.17471433 90998
SITRO-AIS 7 (FARTUSHNIY)
1 57194U 23091AE  25051.15324880  .00015788  00000+0  81377-3 0  9992
2 57194  97.5758 108.0526 0014584 355.2647   4.8446 15.16367494 90972
SITRO-AIS 10 (BURDAEV)  
1 57199U 23091AK  25051.20529154  .00021530  00000+0  99298-3 0  9997
2 57199  97.5766 110.2406 0009588 340.9290  19.1585 15.20229040 91110
SITRO-AIS 9 (SHCHUKIN)  
1 57201U 23091AM  25051.14633100  .00020124  00000+0  93168-3 0  9999
2 57201  97.5763 110.1269 0009557 341.7003  18.3887 15.20111001 91106
SITRO-AIS 12 (SMIRENNIY)
1 57204U 23091AQ  25051.14286273  .00019642  00000+0  90441-3 0  9991
2 57204  97.5771 110.3578 0009400 334.9961  25.0817 15.20305804 91112
SITRO-AIS 11 (SHEFFER)  
1 57208U 23091AU  25051.10838555  .00021037  00000+0  96388-3 0  9994
2 57208  97.5768 110.3855 0009293 335.2013  24.8774 15.20462437 91117
VERONIKA                
1 58261U 23174F   25051.20008872  .00079197  00000+0  16471-2 0  9992
2 58261  97.4268 133.0023 0006862  83.4403 276.7626 15.45331627 71669
ROBUSTA-1E (ENSO)       
1 58470U 23185J   25051.15870319  .00054120  00000+0  12509-2 0  9990
2 58470  97.3889 123.7985 0009035 117.1611 243.0559 15.42285524 68099
SITRO-AIS 29            
1 59052U 24039B   25051.17581351  .00142961  00000+0  17381-2 0  9997
2 59052  97.4135  22.2246 0012938  62.5307 297.7263 15.59985913 54770
SITRO-AIS 30            
1 59053U 24039C   25051.17309438  .00132059  00000+0  16798-2 0  9990
2 59053  97.4128  22.0641 0013183  62.0138 298.2450 15.58822355 54751
SITRO-AIS 31            
1 59054U 24039D   25051.17621191  .00139426  00000+0  17187-2 0  9992
2 59054  97.4145  22.2230 0013017  64.2309 296.0289 15.59632025 54780
SITRO-AIS 33            
1 59055U 24039E   25051.14770914  .00136496  00000+0  16727-2 0  9991
2 59055  97.4134  22.2679 0012660  63.5274 296.7280 15.59802841 54774
SITRO-AIS 35            
1 59056U 24039F   25051.20045289  .00144488  00000+0  17542-2 0  9995
2 59056  97.4145  22.3502 0012827  65.9808 294.2790 15.60019650 54787
SITRO-AIS 32            
1 59057U 24039G   25051.19157357  .00140194  00000+0  17593-2 0  9990
2 59057  97.4146  22.2182 0012897  64.0473 296.2111 15.59158700 54773
SITRO-AIS 34            
1 59058U 24039H   25051.14834230  .00134792  00000+0  16542-2 0  9998
2 59058  97.4138  22.2705 0012592  63.9722 296.2830 15.59771400 54779
SITRO-AIS 36            
1 59059U 24039J   25051.19042265  .00140160  00000+0  17258-2 0  9994
2 59059  97.4125  22.3538 0012373  64.5737 295.6798 15.59669223 54787
SITRO-AIS 49            
1 59060U 24039K   25051.16359631  .00123774  00000+0  15565-2 0  9992
2 59060  97.4134  22.2460 0012678  64.1660 296.0902 15.59161780 54777
SITRO-AIS 50            
1 59061U 24039L   25051.19755680  .00151881  00000+0  17990-2 0  9994
2 59061  97.4121  22.4934 0012141  64.3045 295.9465 15.60653889 54798
SITRO-AIS 51            
1 59062U 24039M   25051.18550631  .00144318  00000+0  16900-2 0  9990
2 59062  97.4125  22.5087 0012123  64.3350 295.9157 15.60977952 54790
SITRO-AIS 52            
1 59063U 24039N   25051.16330019  .00140637  00000+0  16395-2 0  9993
2 59063  97.4136  22.5514 0012299  66.5545 293.7003 15.61105075 54798
SITRO-AIS 25            
1 59066U 24039R   25051.21672411  .00010284  00000+0  89899-3 0  9991
2 59066  95.3818 265.6526 0158506 206.1339 153.1822 14.87606498 52926
SITRO-AIS 26            
1 59067U 24039S   25051.16463987  .00008823  00000+0  77439-3 0  9995
2 59067  95.3819 265.5928 0158718 206.4824 152.8226 14.87461348 52916
SITRO-AIS 27            
1 59068U 24039T   25051.18289944  .00009371  00000+0  81700-3 0  9992
2 59068  95.3816 265.6912 0158085 205.9573 153.3661 14.87765713 52923
SITRO-AIS 28            
1 59071U 24039U   25051.17295875  .00008767  00000+0  76410-3 0  9995
2 59071  95.3820 265.7046 0157927 205.9311 153.3938 14.87807868 52920
GRBBETA                 
1 60237U 24128C   25050.61775756  .00007445  00000+0  58658-3 0  9995
2 60237  61.9920 102.5288 0041190  31.9774 328.3802 15.00921701 33681
OOV-CUBE (TUBSAT-30)    
1 60240U 24128F   25051.12216793  .00004614  00000+0  38786-3 0  9992
2 60240  61.9962 102.2666 0039786  28.3823 331.9422 14.99136580 33746
ROBUSTA-3A (MEDITERRAN*)
1 60243U 24128J   25050.83900427  .00011291  00000+0  85960-3 0  9991
2 60243  61.9888 101.8560 0039822  24.5408 335.7567 15.01882442 33721
LASARSAT                
1 62391U 24247Q   25050.36357255  .00033807  00000+0  15186-2 0  9991
2 62391  44.9939  38.1104 0003474  95.9361 264.1915 15.20642064  9253
CROCUBE                 
1 62394U 24247T   25051.02236549  .00025967  00000+0  11694-2 0  9998
2 62394  44.9919  34.5720 0004033 103.6126 256.5203 15.20674342  9356
